[{"OBJECT_NAME":"IRIDIUM 115","OBJECT_ID":"2017-039D","EPOCH":"2026-03-09T21:44:50.536608","MEAN_MOTION":14.43281411,"ECCENTRICITY":0.00018282,"INCLINATION":86.4554,"RA_OF_ASC_NODE":3.5706,"ARG_OF_PERICENTER":89.0887,"MEAN_ANOMALY":271.0524,"EPHEMERIS_TYPE":0,"CLASSIFICATION_TYPE":"U","NORAD_CAT_ID":42806,"ELEMENT_SET_NO":999,"REV_AT_EPOCH":45994,"BSTAR":0.00015631105,"MEAN_MOTION_DOT":5.46e-6,"MEAN_MOTION_DDOT":0},{"OBJECT_NAME":"CZ-6A DEB","OBJECT_ID":"2024-140FJ","EPOCH":"2026-03-09T14:38:07.781856","MEAN_MOTION":14.56615567,"ECCENTRICITY":0.0126159,"INCLINATION":89.0514,"RA_OF_ASC_NODE":285.9416,"ARG_OF_PERICENTER":232.1551,"MEAN_ANOMALY":126.8191,"EPHEMERIS_TYPE":0,"CLASSIFICATION_TYPE":"U","NORAD_CAT_ID":60783,"ELEMENT_SET_NO":999,"REV_AT_EPOCH":8357,"BSTAR":0.00016468,"MEAN_MOTION_DOT":8.35e-6,"MEAN_MOTION_DDOT":0}]
